{"type": "FeatureCollection", "features": [ {"type": "Feature", "properties": {"norad_id": 32289, "name": "YAOGAN-3", "group": "resource", "lat": -55.03016531563405, "lon": -164.49493468187273, "alt_km": 605.9939061862678, "timestamp": "2025-12-26T08:37:54.226512+00:00", "meta": {"OBJECT_NAME": "YAOGAN-3", "OBJECT_ID": "2007-055A", "EPOCH": "2025-12-25T23:31:04.221408", "MEAN_MOTION": 14.89920968, "ECCENTRICITY": 0.00012468, "INCLINATION": 97.8358, "RA_OF_ASC_NODE": 26.4842, "ARG_OF_PERICENTER": 85.8961, "MEAN_ANOMALY": 274.2399, "EPHEMERIS_TYPE": 0, "CLASSIFICATION_TYPE": "U", "NORAD_CAT_ID": 32289, "ELEMENT_SET_NO": 999, "REV_AT_EPOCH": 98006, "BSTAR": 0.0001541562, "MEAN_MOTION_DOT": 1.428e-05, "MEAN_MOTION_DDOT": 0}, "tle": {"line1": "1 32289U 07055A   25359.97990997  .00001428  00000+0  15416-3 0  9998", "line2": "2 32289  97.8358  26.4842 0001246  85.8961 274.2399 14.89920968980067"}}, "geometry": {"type": "Point", "coordinates": [-164.49493468187273, -55.03016531563405]}}, {"type": "Feature", "properties": {"norad_id": 32376, "name": "COSMO-SKYMED 2", "group": "resource", "lat": 43.32990406700349, "lon": 8.986051320405402, "alt_km": 618.3946663596389, "timestamp": "2025-12-26T08:37:54.226537+00:00", "meta": {"OBJECT_NAME": "COSMO-SKYMED 2", "OBJECT_ID": "2007-059A", "EPOCH": "2025-12-25T23:55:07.467744", "MEAN_MOTION": 14.8215862, "ECCENTRICITY": 0.00013051, "INCLINATION": 97.8806, "RA_OF_ASC_NODE": 181.1208, "ARG_OF_PERICENTER": 83.119, "MEAN_ANOMALY": 277.0172, "EPHEMERIS_TYPE": 0, "CLASSIFICATION_TYPE": "U", "NORAD_CAT_ID": 32376, "ELEMENT_SET_NO": 999, "REV_AT_EPOCH": 97634, "BSTAR": 7.4781535e-05, "MEAN_MOTION_DOT": 5.43e-06, "MEAN_MOTION_DDOT": 0}, "tle": {"line1": "1 32376U 07059A   25359.99661421  .00000543  00000+0  74782-4 0  9997", "line2": "2 32376  97.8806 181.1208 0001305  83.1190 277.0172 14.82158620976345"}}, "geometry": {"type": "Point", "coordinates": [8.986051320405402, 43.32990406700349]}}, {"type": "Feature", "properties": {"norad_id": 32382, "name": "RADARSAT-2", "group": "resource", "lat": 50.44595763246755, "lon": -5.7810890618203, "alt_km": 786.4551224549514, "timestamp": "2025-12-26T08:37:54.226550+00:00", "meta": {"OBJECT_NAME": "RADARSAT-2", "OBJECT_ID": "2007-061A", "EPOCH": "2025-12-25T23:59:47.344992", "MEAN_MOTION": 14.29984851, "ECCENTRICITY": 0.00011168, "INCLINATION": 98.5798, "RA_OF_ASC_NODE": 4.3968, "ARG_OF_PERICENTER": 85.8212, "MEAN_ANOMALY": 274.3098, "EPHEMERIS_TYPE": 0, "CLASSIFICATION_TYPE": "U", "NORAD_CAT_ID": 32382, "ELEMENT_SET_NO": 999, "REV_AT_EPOCH": 94120, "BSTAR": -3.429198e-06, "MEAN_MOTION_DOT": -5.2e-07, "MEAN_MOTION_DDOT": 0}, "tle": {"line1": "1 32382U 07061A   25359.99985353 -.00000052  00000+0 -34292-5 0  9990", "line2": "2 32382  98.5798   4.3968 0001116  85.8212 274.3098 14.29984851941201"}}, "geometry": {"type": "Point", "coordinates": [-5.7810890618203, 50.44595763246755]}}, {"type": "Feature", "properties": {"norad_id": 32783, "name": "CARTOSAT-2A", "group": "resource", "lat": 60.297994304398976, "lon": -116.35672811093856, "alt_km": 633.9502767751765, "timestamp": "2025-12-26T08:37:54.226561+00:00", "meta": {"OBJECT_NAME": "CARTOSAT-2A", "OBJECT_ID": "2008-021A", "EPOCH": "2025-12-26T04:50:57.162336", "MEAN_MOTION": 14.78954977, "ECCENTRICITY": 0.0010916, "INCLINATION": 97.7908, "RA_OF_ASC_NODE": 49.6034, "ARG_OF_PERICENTER": 319.7393, "MEAN_ANOMALY": 40.3009, "EPHEMERIS_TYPE": 0, "CLASSIFICATION_TYPE": "U", "NORAD_CAT_ID": 32783, "ELEMENT_SET_NO": 999, "REV_AT_EPOCH": 95323, "BSTAR": 8.9725e-05, "MEAN_MOTION_DOT": 6.12e-06, "MEAN_MOTION_DDOT": 0}, "tle": {"line1": "1 32783U 08021A   25360.20205049  .00000612  00000+0  89725-4 0  9995", "line2": "2 32783  97.7908  49.6034 0010916 319.7393  40.3009 14.78954977953232"}}, "geometry": {"type": "Point", "coordinates": [-116.35672811093856, 60.297994304398976]}}, {"type": "Feature", "properties": {"norad_id": 33320, "name": "HUANJING 1A (HJ-1A)", "group": "resource", "lat": -22.430759523089318, "lon": 164.90710419365928, "alt_km": 635.3026000121308, "timestamp": "2025-12-26T08:37:54.226572+00:00", "meta": {"OBJECT_NAME": "HUANJING 1A (HJ-1A)", "OBJECT_ID": "2008-041A", "EPOCH": "2025-12-26T04:28:59.352384", "MEAN_MOTION": 14.83435533, "ECCENTRICITY": 0.0019119, "INCLINATION": 97.6552, "RA_OF_ASC_NODE": 347.9242, "ARG_OF_PERICENTER": 351.3642, "MEAN_ANOMALY": 8.724, "EPHEMERIS_TYPE": 0, "CLASSIFICATION_TYPE": "U", "NORAD_CAT_ID": 33320, "ELEMENT_SET_NO": 999, "REV_AT_EPOCH": 93275, "BSTAR": 0.00023251, "MEAN_MOTION_DOT": 1.864e-05, "MEAN_MOTION_DDOT": 0}, "tle": {"line1": "1 33320U 08041A   25360.18679806  .00001864  00000+0  23251-3 0  9999", "line2": "2 33320  97.6552 347.9242 0019119 351.3642   8.7240 14.83435533932759"}}, "geometry": {"type": "Point", "coordinates": [164.90710419365928, -22.430759523089318]}}, {"type": "Feature", "properties": {"norad_id": 33321, "name": "HUANJING 1B (HJ-1B)", "group": "resource", "lat": 35.077844387246635, "lon": -13.658385341383852, "alt_km": 591.6646671394865, "timestamp": "2025-12-26T08:37:54.226582+00:00", "meta": {"OBJECT_NAME": "HUANJING 1B (HJ-1B)", "OBJECT_ID": "2008-041B", "EPOCH": "2025-12-26T05:14:04.570080", "MEAN_MOTION": 14.82859169, "ECCENTRICITY": 0.0037683, "INCLINATION": 97.641, "RA_OF_ASC_NODE": 351.6158, "ARG_OF_PERICENTER": 33.0581, "MEAN_ANOMALY": 327.2977, "EPHEMERIS_TYPE": 0, "CLASSIFICATION_TYPE": "U", "NORAD_CAT_ID": 33321, "ELEMENT_SET_NO": 999, "REV_AT_EPOCH": 93277, "BSTAR": 0.00027536, "MEAN_MOTION_DOT": 2.206e-05, "MEAN_MOTION_DDOT": 0}, "tle": {"line1": "1 33321U 08041B   25360.21810845  .00002206  00000+0  27536-3 0  9995", "line2": "2 33321  97.6410 351.6158 0037683  33.0581 327.2977 14.82859169932775"}}, "geometry": {"type": "Point", "coordinates": [-13.658385341383852, 35.077844387246635]}}, {"type": "Feature", "properties": {"norad_id": 33331, "name": "GEOEYE 1", "group": "resource", "lat": -35.18579579755943, "lon": -114.31212769047221, "alt_km": 682.139111501554, "timestamp": "2025-12-26T08:37:54.226593+00:00", "meta": {"OBJECT_NAME": "GEOEYE 1", "OBJECT_ID": "2008-042A", "EPOCH": "2025-12-26T02:43:55.807104", "MEAN_MOTION": 14.64717692, "ECCENTRICITY": 0.0003049, "INCLINATION": 98.1236, "RA_OF_ASC_NODE": 71.2251, "ARG_OF_PERICENTER": 227.1218, "MEAN_ANOMALY": 132.9729, "EPHEMERIS_TYPE": 0, "CLASSIFICATION_TYPE": "U", "NORAD_CAT_ID": 33331, "ELEMENT_SET_NO": 999, "REV_AT_EPOCH": 92481, "BSTAR": 0.00011804, "MEAN_MOTION_DOT": 5.81e-06, "MEAN_MOTION_DDOT": 0}, "tle": {"line1": "1 33331U 08042A   25360.11384036  .00000581  00000+0  11804-3 0  9999", "line2": "2 33331  98.1236  71.2251 0003049 227.1218 132.9729 14.64717692924815"}}, "geometry": {"type": "Point", "coordinates": [-114.31212769047221, -35.18579579755943]}}, {"type": "Feature", "properties": {"norad_id": 33396, "name": "THEOS", "group": "resource", "lat": 46.717827800490724, "lon": 48.81618797206106, "alt_km": 820.2715529879224, "timestamp": "2025-12-26T08:37:54.226603+00:00", "meta": {"OBJECT_NAME": "THEOS", "OBJECT_ID": "2008-049A", "EPOCH": "2025-12-26T03:20:10.735296", "MEAN_MOTION": 14.20099988, "ECCENTRICITY": 0.0001189, "INCLINATION": 98.5844, "RA_OF_ASC_NODE": 57.8319, "ARG_OF_PERICENTER": 93.8745, "MEAN_ANOMALY": 266.2567, "EPHEMERIS_TYPE": 0, "CLASSIFICATION_TYPE": "U", "NORAD_CAT_ID": 33396, "ELEMENT_SET_NO": 999, "REV_AT_EPOCH": 89340, "BSTAR": 0.00012087, "MEAN_MOTION_DOT": 2.15e-06, "MEAN_MOTION_DDOT": 0}, "tle": {"line1": "1 33396U 08049A   25360.13901314  .00000215  00000+0  12087-3 0  9991", "line2": "2 33396  98.5844  57.8319 0001189  93.8745 266.2567 14.20099988893400"}}, "geometry": {"type": "Point", "coordinates": [48.81618797206106, 46.717827800490724]}}, {"type": "Feature", "properties": {"norad_id": 33412, "name": "COSMO-SKYMED 3", "group": "resource", "lat": -8.702664851011681, "lon": -147.80880200452887, "alt_km": 562.7258757887439, "timestamp": "2025-12-26T08:37:54.226616+00:00", "meta": {"OBJECT_NAME": "COSMO-SKYMED 3", "OBJECT_ID": "2008-054A", "EPOCH": "2025-12-26T03:53:06.706752", "MEAN_MOTION": 15.05469749, "ECCENTRICITY": 0.0017079, "INCLINATION": 97.8448, "RA_OF_ASC_NODE": 210.7809, "ARG_OF_PERICENTER": 128.3279, "MEAN_ANOMALY": 231.9485, "EPHEMERIS_TYPE": 0, "CLASSIFICATION_TYPE": "U", "NORAD_CAT_ID": 33412, "ELEMENT_SET_NO": 999, "REV_AT_EPOCH": 93089, "BSTAR": 0.00031508, "MEAN_MOTION_DOT": 4.477e-05, "MEAN_MOTION_DDOT": 0}, "tle": {"line1": "1 33412U 08054A   25360.16188318  .00004477  00000+0  31508-3 0  9993", "line2": "2 33412  97.8448 210.7809 0017079 128.3279 231.9485 15.05469749930899"}}, "geometry": {"type": "Point", "coordinates": [-147.80880200452887, -8.702664851011681]}}, {"type": "Feature", "properties": {"norad_id": 33446, "name": "YAOGAN-4", "group": "resource", "lat": -58.33877621525039, "lon": -56.62735505165019, "alt_km": 619.68463431698, "timestamp": "2025-12-26T08:37:54.226630+00:00", "meta": {"OBJECT_NAME": "YAOGAN-4", "OBJECT_ID": "2008-061A", "EPOCH": "2025-12-25T18:19:17.173344", "MEAN_MOTION": 14.8271976, "ECCENTRICITY": 0.00129661, "INCLINATION": 97.9198, "RA_OF_ASC_NODE": 289.7359, "ARG_OF_PERICENTER": 277.0684, "MEAN_ANOMALY": 82.9055, "EPHEMERIS_TYPE": 0, "CLASSIFICATION_TYPE": "U", "NORAD_CAT_ID": 33446, "ELEMENT_SET_NO": 999, "REV_AT_EPOCH": 91996, "BSTAR": 0.00018510552, "MEAN_MOTION_DOT": 1.442e-05, "MEAN_MOTION_DDOT": 0}, "tle": {"line1": "1 33446U 08061A   25359.76339321  .00001442  00000+0  18511-3 0  9992", "line2": "2 33446  97.9198 289.7359 0012966 277.0684  82.9055 14.82719760919964"}}, "geometry": {"type": "Point", "coordinates": [-56.62735505165019, -58.33877621525039]}}]}